[{"OBJECT_NAME":"STARLINK-4560","OBJECT_ID":"2022-105AV","EPOCH":"2026-03-09T16:15:58.893408","MEAN_MOTION":15.05644164,"ECCENTRICITY":0.00023144,"INCLINATION":97.6028,"RA_OF_ASC_NODE":311.1972,"ARG_OF_PERICENTER":83.4484,"MEAN_ANOMALY":276.7006,"EPHEMERIS_TYPE":0,"CLASSIFICATION_TYPE":"U","NORAD_CAT_ID":53691,"ELEMENT_SET_NO":999,"REV_AT_EPOCH":19330,"BSTAR":1.8233297e-5,"MEAN_MOTION_DOT":2.02e-6,"MEAN_MOTION_DDOT":0},{"OBJECT_NAME":"PEGASUS DEB","OBJECT_ID":"1994-029AEV","EPOCH":"2026-03-08T12:20:37.202208","MEAN_MOTION":14.52178672,"ECCENTRICITY":0.02317488,"INCLINATION":81.8165,"RA_OF_ASC_NODE":159.2415,"ARG_OF_PERICENTER":279.066,"MEAN_ANOMALY":78.4379,"EPHEMERIS_TYPE":0,"CLASSIFICATION_TYPE":"U","NORAD_CAT_ID":39310,"ELEMENT_SET_NO":999,"REV_AT_EPOCH":82956,"BSTAR":0.001122164,"MEAN_MOTION_DOT":6.495e-5,"MEAN_MOTION_DDOT":0}]
